MALLIGYONG-1            
1 58400U 23179A   24204.76626536  .00010272  00000+0  45826-3 0  9991
2 58400  97.3990  91.0119 0003575  84.2054 275.9589 15.21574226 37134
